[{"OBJECT_NAME":"SL-12 R/B(2)","OBJECT_ID":"1983-028F","EPOCH":"2026-03-28T18:22:59.604960","MEAN_MOTION":1.00044624,"ECCENTRICITY":0.0023131,"INCLINATION":8.3925,"RA_OF_ASC_NODE":306.9157,"ARG_OF_PERICENTER":222.7509,"MEAN_ANOMALY":329.3534,"EPHEMERIS_TYPE":0,"CLASSIFICATION_TYPE":"U","NORAD_CAT_ID":13983,"ELEMENT_SET_NO":999,"REV_AT_EPOCH":15700,"BSTAR":0,"MEAN_MOTION_DOT":1.13e-6,"MEAN_MOTION_DDOT":0},{"OBJECT_NAME":"SATCOM 1R","OBJECT_ID":"1983-030A","EPOCH":"2026-03-28T18:32:21.206688","MEAN_MOTION":0.99843912,"ECCENTRICITY":0.0005133,"INCLINATION":13.2767,"RA_OF_ASC_NODE":339.0909,"ARG_OF_PERICENTER":109.3815,"MEAN_ANOMALY":85.8803,"EPHEMERIS_TYPE":0,"CLASSIFICATION_TYPE":"U","NORAD_CAT_ID":13984,"ELEMENT_SET_NO":999,"REV_AT_EPOCH":12967,"BSTAR":0,"MEAN_MOTION_DOT":2.0e-8,"MEAN_MOTION_DDOT":0},{"OBJECT_NAME":"COSMOS 1191 DEB","OBJECT_ID":"1980-057G","EPOCH":"2026-03-27T22:07:21.429984","MEAN_MOTION":2.01268302,"ECCENTRICITY":0.7183197,"INCLINATION":63.4737,"RA_OF_ASC_NODE":321.8699,"ARG_OF_PERICENTER":25.4357,"MEAN_ANOMALY":357.093,"EPHEMERIS_TYPE":0,"CLASSIFICATION_TYPE":"U","NORAD_CAT_ID":13999,"ELEMENT_SET_NO":999,"REV_AT_EPOCH":32841,"BSTAR":0,"MEAN_MOTION_DOT":-1.98e-6,"MEAN_MOTION_DDOT":0},{"OBJECT_NAME":"GOES 6","OBJECT_ID":"1983-041A","EPOCH":"2026-03-28T15:57:21.070944","MEAN_MOTION":1.0022003,"ECCENTRICITY":0.0001762,"INCLINATION":10.3196,"RA_OF_ASC_NODE":321.7492,"ARG_OF_PERICENTER":311.1716,"MEAN_ANOMALY":38.328,"EPHEMERIS_TYPE":0,"CLASSIFICATION_TYPE":"U","NORAD_CAT_ID":14050,"ELEMENT_SET_NO":999,"REV_AT_EPOCH":21520,"BSTAR":0,"MEAN_MOTION_DOT":-6.1e-7,"MEAN_MOTION_DDOT":0},{"OBJECT_NAME":"GOES 6 AKM","OBJECT_ID":"1983-041C","EPOCH":"2026-03-28T06:58:17.783040","MEAN_MOTION":0.84336853,"ECCENTRICITY":0.1678166,"INCLINATION":15.8878,"RA_OF_ASC_NODE":321.7544,"ARG_OF_PERICENTER":117.3938,"MEAN_ANOMALY":93.5685,"EPHEMERIS_TYPE":0,"CLASSIFICATION_TYPE":"U","NORAD_CAT_ID":14069,"ELEMENT_SET_NO":999,"REV_AT_EPOCH":3914,"BSTAR":0,"MEAN_MOTION_DOT":-2.11e-6,"MEAN_MOTION_DDOT":0},{"OBJECT_NAME":"INTELSAT 506","OBJECT_ID":"1983-047A","EPOCH":"2026-03-28T08:40:52.125888","MEAN_MOTION":0.99160176,"ECCENTRICITY":0.00404231,"INCLINATION":12.5468,"RA_OF_ASC_NODE":334.1708,"ARG_OF_PERICENTER":353.5717,"MEAN_ANOMALY":201.7572,"EPHEMERIS_TYPE":0,"CLASSIFICATION_TYPE":"U","NORAD_CAT_ID":14077,"ELEMENT_SET_NO":999,"REV_AT_EPOCH":12328,"BSTAR":0,"MEAN_MOTION_DOT":1.3e-7,"MEAN_MOTION_DDOT":0},{"OBJECT_NAME":"SL-12 R/B(2)","OBJECT_ID":"1983-016F","EPOCH":"2026-03-28T15:07:40.834272","MEAN_MOTION":1.01105163,"ECCENTRICITY":0.0016423,"INCLINATION":6.7787,"RA_OF_ASC_NODE":297.4077,"ARG_OF_PERICENTER":327.2653,"MEAN_ANOMALY":220.6927,"EPHEMERIS_TYPE":0,"CLASSIFICATION_TYPE":"U","NORAD_CAT_ID":14086,"ELEMENT_SET_NO":999,"REV_AT_EPOCH":12215,"BSTAR":0,"MEAN_MOTION_DOT":-2.56e-6,"MEAN_MOTION_DDOT":0},{"OBJECT_NAME":"SL-12 R/B(2)","OBJECT_ID":"1982-044F","EPOCH":"2026-03-28T19:53:26.494368","MEAN_MOTION":1.00263465,"ECCENTRICITY":0.0014349,"INCLINATION":8.3704,"RA_OF_ASC_NODE":297.3248,"ARG_OF_PERICENTER":197.6034,"MEAN_ANOMALY":343.8329,"EPHEMERIS_TYPE":0,"CLASSIFICATION_TYPE":"U","NORAD_CAT_ID":14114,"ELEMENT_SET_NO":999,"REV_AT_EPOCH":4653,"BSTAR":0,"MEAN_MOTION_DOT":-8.5e-7,"MEAN_MOTION_DDOT":0},{"OBJECT_NAME":"SL-12 R/B(2)","OBJECT_ID":"1982-009F","EPOCH":"2026-03-28T12:45:16.989696","MEAN_MOTION":1.00984571,"ECCENTRICITY":0.0036847,"INCLINATION":6.6407,"RA_OF_ASC_NODE":294.5024,"ARG_OF_PERICENTER":196.9661,"MEAN_ANOMALY":178.8676,"EPHEMERIS_TYPE":0,"CLASSIFICATION_TYPE":"U","NORAD_CAT_ID":14117,"ELEMENT_SET_NO":999,"REV_AT_EPOCH":12262,"BSTAR":0,"MEAN_MOTION_DOT":-3.01e-6,"MEAN_MOTION_DDOT":0},{"OBJECT_NAME":"NAHUEL I2 (ANIK C2)","OBJECT_ID":"1983-059B","EPOCH":"2026-03-28T05:19:49.439136","MEAN_MOTION":0.99119851,"ECCENTRICITY":0.0035701,"INCLINATION":12.9867,"RA_OF_ASC_NODE":336.786,"ARG_OF_PERICENTER":116.7828,"MEAN_ANOMALY":243.5602,"EPHEMERIS_TYPE":0,"CLASSIFICATION_TYPE":"U","NORAD_CAT_ID":14133,"ELEMENT_SET_NO":999,"REV_AT_EPOCH":4534,"BSTAR":0,"MEAN_MOTION_DOT":3.4e-7,"MEAN_MOTION_DDOT":0},{"OBJECT_NAME":"PALAPA B1","OBJECT_ID":"1983-059C","EPOCH":"2026-03-28T20:03:55.488096","MEAN_MOTION":1.00167714,"ECCENTRICITY":0.0002265,"INCLINATION":11.6892,"RA_OF_ASC_NODE":330.036,"ARG_OF_PERICENTER":66.7992,"MEAN_ANOMALY":121.1589,"EPHEMERIS_TYPE":0,"CLASSIFICATION_TYPE":"U","NORAD_CAT_ID":14134,"ELEMENT_SET_NO":999,"REV_AT_EPOCH":11998,"BSTAR":0,"MEAN_MOTION_DOT":1.11e-6,"MEAN_MOTION_DDOT":0},{"OBJECT_NAME":"GALAXY 1 (G-1)","OBJECT_ID":"1983-065A","EPOCH":"2026-03-28T00:53:32.808192","MEAN_MOTION":1.00136419,"ECCENTRICITY":0.00502549,"INCLINATION":13.6647,"RA_OF_ASC_NODE":342.2793,"ARG_OF_PERICENTER":281.8794,"MEAN_ANOMALY":252.4678,"EPHEMERIS_TYPE":0,"CLASSIFICATION_TYPE":"U","NORAD_CAT_ID":14158,"ELEMENT_SET_NO":999,"REV_AT_EPOCH":4581,"BSTAR":0,"MEAN_MOTION_DOT":-3.05e-6,"MEAN_MOTION_DDOT":0},{"OBJECT_NAME":"SL-12 R/B(2)","OBJECT_ID":"1981-102F","EPOCH":"2026-03-27T19:45:55.267776","MEAN_MOTION":1.00237676,"ECCENTRICITY":0.0008262,"INCLINATION":6.7977,"RA_OF_ASC_NODE":295.0761,"ARG_OF_PERICENTER":228.0427,"MEAN_ANOMALY":131.7271,"EPHEMERIS_TYPE":0,"CLASSIFICATION_TYPE":"U","NORAD_CAT_ID":14195,"ELEMENT_SET_NO":999,"REV_AT_EPOCH":12218,"BSTAR":0,"MEAN_MOTION_DOT":-3.4e-7,"MEAN_MOTION_DDOT":0},{"OBJECT_NAME":"ARABSAT-1DR (TELSTAR 3A)","OBJECT_ID":"1983-077A","EPOCH":"2026-03-27T22:20:57.698304","MEAN_MOTION":0.99528835,"ECCENTRICITY":0.0022765,"INCLINATION":13.8421,"RA_OF_ASC_NODE":342.5694,"ARG_OF_PERICENTER":170.1802,"MEAN_ANOMALY":189.8479,"EPHEMERIS_TYPE":0,"CLASSIFICATION_TYPE":"U","NORAD_CAT_ID":14234,"ELEMENT_SET_NO":999,"REV_AT_EPOCH":4553,"BSTAR":0,"MEAN_MOTION_DOT":-1.09e-6,"MEAN_MOTION_DDOT":0},{"OBJECT_NAME":"INSAT-1B","OBJECT_ID":"1983-089B","EPOCH":"2026-03-28T15:13:40.260000","MEAN_MOTION":1.0017144,"ECCENTRICITY":0.0008853,"INCLINATION":11.2773,"RA_OF_ASC_NODE":327.5514,"ARG_OF_PERICENTER":256.9239,"MEAN_ANOMALY":282.9737,"EPHEMERIS_TYPE":0,"CLASSIFICATION_TYPE":"U","NORAD_CAT_ID":14318,"ELEMENT_SET_NO":999,"REV_AT_EPOCH":12440,"BSTAR":0,"MEAN_MOTION_DOT":-2.68e-6,"MEAN_MOTION_DDOT":0},{"OBJECT_NAME":"SATCOM 2R","OBJECT_ID":"1983-094A","EPOCH":"2026-03-28T18:32:13.720128","MEAN_MOTION":0.99405585,"ECCENTRICITY":0.0015038,"INCLINATION":14.3567,"RA_OF_ASC_NODE":346.5289,"ARG_OF_PERICENTER":63.3809,"MEAN_ANOMALY":123.8631,"EPHEMERIS_TYPE":0,"CLASSIFICATION_TYPE":"U","NORAD_CAT_ID":14328,"ELEMENT_SET_NO":999,"REV_AT_EPOCH":15475,"BSTAR":0,"MEAN_MOTION_DOT":3.8e-7,"MEAN_MOTION_DDOT":0},{"OBJECT_NAME":"GALAXY 2 (G-2)","OBJECT_ID":"1983-098A","EPOCH":"2026-03-27T13:04:18.939360","MEAN_MOTION":1.00177375,"ECCENTRICITY":0.0003694,"INCLINATION":13.6701,"RA_OF_ASC_NODE":342.5899,"ARG_OF_PERICENTER":73.4755,"MEAN_ANOMALY":174.3873,"EPHEMERIS_TYPE":0,"CLASSIFICATION_TYPE":"U","NORAD_CAT_ID":14365,"ELEMENT_SET_NO":999,"REV_AT_EPOCH":13141,"BSTAR":0,"MEAN_MOTION_DOT":9.3e-7,"MEAN_MOTION_DDOT":0}]
