SL-12 R/B(2)            
1 13983U 83028F   26087.76596765  .00000113  00000+0  00000+0 0  9992
2 13983   8.3925 306.9157 0023131 222.7509 329.3534  1.00044624157004
SATCOM 1R               
1 13984U 83030A   26087.77246767  .00000002  00000+0  00000+0 0  9998
2 13984  13.2767 339.0909 0005133 109.3815  85.8803  0.99843912129677
COSMOS 1191 DEB         
1 13999U 80057G   26086.92177581 -.00000198  00000+0  00000+0 0  9990
2 13999  63.4737 321.8699 7183197  25.4357 357.0930  2.01268302328412
GOES 6                  
1 14050U 83041A   26087.66482721 -.00000061  00000+0  00000+0 0  9991
2 14050  10.3196 321.7492 0001762 311.1716  38.3280  1.00220030215208
GOES 6 AKM              
1 14069U 83041C   26087.29048360 -.00000211  00000+0  00000+0 0  9994
2 14069  15.8878 321.7544 1678166 117.3938  93.5685  0.84336853 39145
INTELSAT 506            
1 14077U 83047A   26087.36171442  .00000013  00000+0  00000+0 0  9994
2 14077  12.5468 334.1708 0040423 353.5717 201.7572  0.99160176123286
SL-12 R/B(2)            
1 14086U 83016F   26087.63033373 -.00000256  00000+0  00000+0 0  9990
2 14086   6.7787 297.4077 0016423 327.2653 220.6927  1.01105163122153
SL-12 R/B(2)            
1 14114U 82044F   26087.82877887 -.00000085  00000+0  00000+0 0  9999
2 14114   8.3704 297.3248 0014349 197.6034 343.8329  1.00263465 46538
SL-12 R/B(2)            
1 14117U 82009F   26087.53144664 -.00000301  00000+0  00000+0 0  9992
2 14117   6.6407 294.5024 0036847 196.9661 178.8676  1.00984571122622
NAHUEL I2 (ANIK C2)     
1 14133U 83059B   26087.22209999  .00000034  00000+0  00000+0 0  9997
2 14133  12.9867 336.7860 0035701 116.7828 243.5602  0.99119851 45340
PALAPA B1               
1 14134U 83059C   26087.83605889  .00000111  00000+0  00000+0 0  9999
2 14134  11.6892 330.0360 0002265  66.7992 121.1589  1.00167714119983
GALAXY 1 (G-1)          
1 14158U 83065A   26087.03718528 -.00000305  00000+0  00000+0 0  9995
2 14158  13.6647 342.2793 0050254 281.8794 252.4678  1.00136419 45810
SL-12 R/B(2)            
1 14195U 81102F   26086.82355634 -.00000034  00000+0  00000+0 0  9996
2 14195   6.7977 295.0761 0008262 228.0427 131.7271  1.00237676122189
ARABSAT-1DR (TELSTAR 3A)
1 14234U 83077A   26086.93122336 -.00000109  00000+0  00000+0 0  9999
2 14234  13.8421 342.5694 0022765 170.1802 189.8479  0.99528835 45531
INSAT-1B                
1 14318U 83089B   26087.63449375 -.00000268  00000+0  00000+0 0  9994
2 14318  11.2773 327.5514 0008853 256.9239 282.9737  1.00171440124404
SATCOM 2R               
1 14328U 83094A   26087.77238102  .00000038  00000+0  00000+0 0  9994
2 14328  14.3567 346.5289 0015038  63.3809 123.8631  0.99405585154750
GALAXY 2 (G-2)          
1 14365U 83098A   26086.54466365  .00000093  00000+0  00000+0 0  9998
2 14365  13.6701 342.5899 0003694  73.4755 174.3873  1.00177375131416
